{
  "norad_id": 57137,
  "name": "STARLINK-5347",
  "history": [
    {
      "epoch": "2026-03-28T21:08:51.703008",
      "apogee_km": 486.5484125587027,
      "perigee_km": 484.19697413776066,
      "latitude_deg": 21.99731160484977,
      "longitude_deg": -21.709218880161643,
      "semi_major_axis_km": 6863.509693348231,
      "eccentricity": 0.0001713,
      "inclination_deg": 43.001,
      "raan_deg": 154.5167,
      "arg_perigee_deg": 285.8995,
      "mean_anomaly_deg": 74.1668,
      "mean_motion_rev_day": 15.26804337
    }
  ]
}